FLOCK 4G-15             
1 62678U 25009BX  26068.71779869  .00012647  00000+0  47575-3 0  9991
2 62678  97.4054 151.1927 0003699 316.8208  43.2740 15.27266411121358
STARLINK-34163          
1 64008U 25101Q   26068.16881443  .00045628  00000+0  16562-2 0  9990
2 64008  43.0016   1.0719 0003820 246.0935 113.9516 15.27598639 46971
